[
    {
        "OBJECT_NAME": "ISS (ZARYA)",
        "OBJECT_ID": "1998-067A",
        "EPOCH": "2024-09-24T00:15:50.980608",
        "MEAN_MOTION": 15.49524956,
        "ECCENTRICITY": 0.0007563,
        "INCLINATION": 51.6376,
        "RA_OF_ASC_NODE": 185.8907,
        "ARG_OF_PERICENTER": 26.6621,
        "MEAN_ANOMALY": 81.1838,
        "EPHEMERIS_TYPE": 0,
        "CLASSIFICATION_TYPE": "U",
        "NORAD_CAT_ID": 25544,
        "ELEMENT_SET_NO": 999,
        "REV_AT_EPOCH": 47387,
        "BSTAR": 0.00037483,
        "MEAN_MOTION_DOT": 0.00020654,
        "MEAN_MOTION_DDOT": 0,
        "date_fetched": "2024-09-24T02:15:58.960161Z"
    },
    {
        "OBJECT_NAME": "ISS (ZARYA)",
        "OBJECT_ID": "1998-067A",
        "EPOCH": "2024-09-24T05:02:00.527712",
        "MEAN_MOTION": 15.49576867,
        "ECCENTRICITY": 0.0006693,
        "INCLINATION": 51.6388,
        "RA_OF_ASC_NODE": 184.9088,
        "ARG_OF_PERICENTER": 26.1701,
        "MEAN_ANOMALY": 110.987,
        "EPHEMERIS_TYPE": 0,
        "CLASSIFICATION_TYPE": "U",
        "NORAD_CAT_ID": 25544,
        "ELEMENT_SET_NO": 999,
        "REV_AT_EPOCH": 47390,
        "BSTAR": 0.00088952,
        "MEAN_MOTION_DOT": 0.0004991,
        "MEAN_MOTION_DDOT": 0,
        "date_fetched": "2024-09-24T07:14:27.751528Z"
    },
    {
        "OBJECT_NAME": "ISS (ZARYA)",
        "OBJECT_ID": "1998-067A",
        "EPOCH": "2024-09-24T06:35:05.465184",
        "MEAN_MOTION": 15.4956267,
        "ECCENTRICITY": 0.0006708,
        "INCLINATION": 51.6388,
        "RA_OF_ASC_NODE": 184.5903,
        "ARG_OF_PERICENTER": 25.8066,
        "MEAN_ANOMALY": 112.177,
        "EPHEMERIS_TYPE": 0,
        "CLASSIFICATION_TYPE": "U",
        "NORAD_CAT_ID": 25544,
        "ELEMENT_SET_NO": 999,
        "REV_AT_EPOCH": 47391,
        "BSTAR": 3.4588e-06,
        "MEAN_MOTION_DOT": -2.62e-06,
        "MEAN_MOTION_DDOT": 0,
        "date_fetched": "2024-09-24T13:22:53.602113Z"
    },
    {
        "OBJECT_NAME": "ISS (ZARYA)",
        "OBJECT_ID": "1998-067A",
        "EPOCH": "2024-09-25T01:22:13.000224",
        "MEAN_MOTION": 15.49612377,
        "ECCENTRICITY": 0.0007027,
        "INCLINATION": 51.639,
        "RA_OF_ASC_NODE": 180.7147,
        "ARG_OF_PERICENTER": 29.5536,
        "MEAN_ANOMALY": 157.7477,
        "EPHEMERIS_TYPE": 0,
        "CLASSIFICATION_TYPE": "U",
        "NORAD_CAT_ID": 25544,
        "ELEMENT_SET_NO": 999,
        "REV_AT_EPOCH": 47403,
        "BSTAR": 0.00060866,
        "MEAN_MOTION_DOT": 0.00033983,
        "MEAN_MOTION_DDOT": 0,
        "date_fetched": "2024-09-25T02:16:59.564946Z"
    },
    {
        "OBJECT_NAME": "ISS (ZARYA)",
        "OBJECT_ID": "1998-067A",
        "EPOCH": "2024-09-25T04:08:41.604000",
        "MEAN_MOTION": 15.4964402,
        "ECCENTRICITY": 0.0006737,
        "INCLINATION": 51.64,
        "RA_OF_ASC_NODE": 180.1455,
        "ARG_OF_PERICENTER": 28.3332,
        "MEAN_ANOMALY": 84.3431,
        "EPHEMERIS_TYPE": 0,
        "CLASSIFICATION_TYPE": "U",
        "NORAD_CAT_ID": 25544,
        "ELEMENT_SET_NO": 999,
        "REV_AT_EPOCH": 47405,
        "BSTAR": 0.00098289,
        "MEAN_MOTION_DOT": 0.00055367,
        "MEAN_MOTION_DDOT": 0,
        "date_fetched": "2024-09-25T07:15:01.842556Z"
    },
    {
        "OBJECT_NAME": "ISS (ZARYA)",
        "OBJECT_ID": "1998-067A",
        "EPOCH": "2024-09-25T05:47:22.690176",
        "MEAN_MOTION": 15.49639069,
        "ECCENTRICITY": 0.0006693,
        "INCLINATION": 51.6403,
        "RA_OF_ASC_NODE": 179.8064,
        "ARG_OF_PERICENTER": 28.3183,
        "MEAN_ANOMALY": 106.923,
        "EPHEMERIS_TYPE": 0,
        "CLASSIFICATION_TYPE": "U",
        "NORAD_CAT_ID": 25544,
        "ELEMENT_SET_NO": 999,
        "REV_AT_EPOCH": 47406,
        "BSTAR": 0.00042867,
        "MEAN_MOTION_DOT": 0.00023788,
        "MEAN_MOTION_DDOT": 0,
        "date_fetched": "2024-09-25T13:23:44.998460Z"
    },
    {
        "OBJECT_NAME": "ISS (ZARYA)",
        "OBJECT_ID": "1998-067A",
        "EPOCH": "2024-09-25T12:07:54.302304",
        "MEAN_MOTION": 15.49620685,
        "ECCENTRICITY": 0.0006945,
        "INCLINATION": 51.6396,
        "RA_OF_ASC_NODE": 178.4912,
        "ARG_OF_PERICENTER": 35.6783,
        "MEAN_ANOMALY": 134.6903,
        "EPHEMERIS_TYPE": 0,
        "CLASSIFICATION_TYPE": "U",
        "NORAD_CAT_ID": 25544,
        "ELEMENT_SET_NO": 999,
        "REV_AT_EPOCH": 47410,
        "BSTAR": 0.00046094,
        "MEAN_MOTION_DOT": 0.00025604,
        "MEAN_MOTION_DDOT": 0,
        "date_fetched": "2024-09-25T19:10:49.254720Z"
    },
    {
        "OBJECT_NAME": "ISS (ZARYA)",
        "OBJECT_ID": "1998-067A",
        "EPOCH": "2024-09-25T20:41:09.447360",
        "MEAN_MOTION": 15.49677938,
        "ECCENTRICITY": 0.0007257,
        "INCLINATION": 51.6368,
        "RA_OF_ASC_NODE": 176.7297,
        "ARG_OF_PERICENTER": 31.8982,
        "MEAN_ANOMALY": 328.2445,
        "EPHEMERIS_TYPE": 0,
        "CLASSIFICATION_TYPE": "U",
        "NORAD_CAT_ID": 25544,
        "ELEMENT_SET_NO": 999,
        "REV_AT_EPOCH": 47416,
        "BSTAR": 0.00067014,
        "MEAN_MOTION_DOT": 0.00037569,
        "MEAN_MOTION_DDOT": 0,
        "date_fetched": "2024-09-26T02:14:49.251549Z"
    },
    {
        "OBJECT_NAME": "ISS (ZARYA)",
        "OBJECT_ID": "1998-067A",
        "EPOCH": "2024-09-26T03:19:43.405248",
        "MEAN_MOTION": 15.49699955,
        "ECCENTRICITY": 0.0007169,
        "INCLINATION": 51.6382,
        "RA_OF_ASC_NODE": 175.3594,
        "ARG_OF_PERICENTER": 33.3475,
        "MEAN_ANOMALY": 71.9465,
        "EPHEMERIS_TYPE": 0,
        "CLASSIFICATION_TYPE": "U",
        "NORAD_CAT_ID": 25544,
        "ELEMENT_SET_NO": 999,
        "REV_AT_EPOCH": 47420,
        "BSTAR": 0.00069072,
        "MEAN_MOTION_DOT": 0.00038772,
        "MEAN_MOTION_DDOT": 0,
        "date_fetched": "2024-09-26T07:14:54.634296Z"
    },
    {
        "OBJECT_NAME": "ISS (ZARYA)",
        "OBJECT_ID": "1998-067A",
        "EPOCH": "2024-09-26T06:35:51.504288",
        "MEAN_MOTION": 15.49706506,
        "ECCENTRICITY": 0.0006594,
        "INCLINATION": 51.6389,
        "RA_OF_ASC_NODE": 174.6848,
        "ARG_OF_PERICENTER": 36.6563,
        "MEAN_ANOMALY": 109.0334,
        "EPHEMERIS_TYPE": 0,
        "CLASSIFICATION_TYPE": "U",
        "NORAD_CAT_ID": 25544,
        "ELEMENT_SET_NO": 999,
        "REV_AT_EPOCH": 47422,
        "BSTAR": -2.4046e-05,
        "MEAN_MOTION_DOT": -1.816e-05,
        "MEAN_MOTION_DDOT": 0,
        "date_fetched": "2024-09-26T13:23:08.393926Z"
    },
    {
        "OBJECT_NAME": "ISS (ZARYA)",
        "OBJECT_ID": "1998-067A",
        "EPOCH": "2024-09-26T15:35:47.699232",
        "MEAN_MOTION": 15.49736122,
        "ECCENTRICITY": 0.0007608,
        "INCLINATION": 51.6387,
        "RA_OF_ASC_NODE": 172.8295,
        "ARG_OF_PERICENTER": 35.312,
        "MEAN_ANOMALY": 43.6221,
        "EPHEMERIS_TYPE": 0,
        "CLASSIFICATION_TYPE": "U",
        "NORAD_CAT_ID": 25544,
        "ELEMENT_SET_NO": 999,
        "REV_AT_EPOCH": 47428,
        "BSTAR": 0.0006306,
        "MEAN_MOTION_DOT": 0.00035392,
        "MEAN_MOTION_DDOT": 0,
        "date_fetched": "2024-09-26T19:11:49.557598Z"
    },
    {
        "OBJECT_NAME": "ISS (ZARYA)",
        "OBJECT_ID": "1998-067A",
        "EPOCH": "2024-09-26T19:54:02.801376",
        "MEAN_MOTION": 15.49740538,
        "ECCENTRICITY": 0.0007236,
        "INCLINATION": 51.6366,
        "RA_OF_ASC_NODE": 171.9406,
        "ARG_OF_PERICENTER": 35.0669,
        "MEAN_ANOMALY": 325.0795,
        "EPHEMERIS_TYPE": 0,
        "CLASSIFICATION_TYPE": "U",
        "NORAD_CAT_ID": 25544,
        "ELEMENT_SET_NO": 999,
        "REV_AT_EPOCH": 47431,
        "BSTAR": 0.00053678,
        "MEAN_MOTION_DOT": 0.00030039,
        "MEAN_MOTION_DDOT": 0,
        "date_fetched": "2024-09-27T02:15:44.124000Z"
    }
]